NORAD_CAT_ID,OBJECT_NAME,OBJECT_TYPE,EPOCH,MEAN_MOTION,ECCENTRICITY,INCLINATION,RA_OF_ASC_NODE,ARG_OF_PERICENTER,MEAN_ANOMALY,BSTAR,MEAN_MOTION_DOT,MEAN_MOTION_DDOT,TLE_LINE0,TLE_LINE1,TLE_LINE2,SEMIMAJOR_AXIS,PERIOD,APOGEE,PERIGEE,DECAYED
53720.0,STARLINK-4642,PAYLOAD,2024-06-03 16:21:04,15.08845147,0.0001292,53.2152,264.944,82.5293,277.5846,0.00028691,4.282e-05,0.0,0 STARLINK-4642,1 53720U 22107W   24155.68130662  .00004282  00000-0  28691-3 0  9993,2 53720  53.2152 264.9440 0001292  82.5293 277.5846 15.08845147 96736,6917.865,95.437,540.623,538.836,0.0
53720.0,STARLINK-4642,PAYLOAD,2024-06-04 11:25:43,15.08835056,0.0001351,53.2138,261.3765,88.0621,272.0526,0.00027256,4.052e-05,0.0,0 STARLINK-4642,1 53720U 22107W   24156.47619437  .00004052  00000-0  27256-3 0  9994,2 53720  53.2138 261.3765 0001351  88.0621 272.0526 15.08835056 96859,6917.896,95.438,540.695,538.826,0.0
53720.0,STARLINK-4642,PAYLOAD,2024-06-05 12:51:53,15.0883476,0.0001363,53.2121,256.6176,79.4797,280.6349,-9.9287e-05,-1.867e-05,0.0,0 STARLINK-4642,1 53720U 22107W   24157.53603878 -.00001867  00000-0 -99287-4 0  9991,2 53720  53.2121 256.6176 0001363  79.4797 280.6349 15.08834760 97013,6917.896,95.438,540.704,538.818,0.0
53720.0,STARLINK-4642,PAYLOAD,2024-06-05 23:59:34,15.08854132,0.000162,53.2159,254.5336,88.2717,271.8461,-6.5862e-05,-1.337e-05,0.0,0 STARLINK-4642,1 53720U 22107W   24157.99970330 -.00001337  00000-0 -65862-4 0  9995,2 53720  53.2159 254.5336 0001620  88.2717 271.8461 15.08854132 97084,6917.837,95.437,540.823,538.582,0.0
53720.0,STARLINK-4642,PAYLOAD,2024-06-06 12:42:40,15.08835957,0.0001553,53.2157,252.1542,94.9036,265.2133,0.0001068,1.412e-05,0.0,0 STARLINK-4642,1 53720U 22107W   24158.52962994  .00001412  00000-0  10680-3 0  9991,2 53720  53.2157 252.1542 0001553  94.9036 265.2133 15.08835957 97164,6917.893,95.438,540.832,538.683,0.0
53720.0,STARLINK-4642,PAYLOAD,2024-06-07 15:44:13,15.08835454,0.0001608,53.2182,247.0996,98.6111,261.5063,5.4145e-05,5.74e-06,0.0,0 STARLINK-4642,1 53720U 22107W   24159.65571166  .00000574  00000-0  54145-4 0  9996,2 53720  53.2182 247.0996 0001608  98.6111 261.5063 15.08835454 97336,6917.894,95.438,540.872,538.647,0.0
53720.0,STARLINK-4642,PAYLOAD,2024-06-08 12:24:13,15.08841353,0.0001285,53.2175,243.2352,89.1008,271.0131,0.00019411,2.803e-05,0.0,0 STARLINK-4642,1 53720U 22107W   24160.51682676  .00002803  00000-0  19411-3 0  9995,2 53720  53.2175 243.2352 0001285  89.1008 271.0131 15.08841353 97925,6917.876,95.437,540.63,538.852,0.0
53720.0,STARLINK-4642,PAYLOAD,2024-06-08 17:10:23,15.0884992,0.0001387,53.217,242.3428,88.251,271.8641,0.00024717,3.649e-05,0.0,0 STARLINK-4642,1 53720U 22107W   24160.71554512  .00003649  00000-0  24717-3 0  9998,2 53720  53.2170 242.3428 0001387  88.2510 271.8641 15.08849920 97499,6917.85,95.437,540.675,538.756,0.0
53720.0,STARLINK-4642,PAYLOAD,2024-06-08 21:56:32,15.08857594,0.0001475,53.2178,241.4515,90.6768,269.4393,0.00032553,4.899e-05,0.0,0 STARLINK-4642,1 53720U 22107W   24160.91425969  .00004899  00000-0  32553-3 0  9998,2 53720  53.2178 241.4515 0001475  90.6768 269.4393 15.08857594 97981,6917.827,95.436,540.712,538.671,0.0
53720.0,STARLINK-4642,PAYLOAD,2024-06-09 12:15:01,15.08826002,0.0001322,53.216,238.7748,94.1319,265.9824,-7.8331e-05,-1.534e-05,0.0,0 STARLINK-4642,1 53720U 22107W   24161.51043881 -.00001534  00000-0 -78331-4 0  9994,2 53720  53.2160 238.7748 0001322  94.1319 265.9824 15.08826002 97611,6917.923,95.438,540.703,538.874,0.0
53720.0,STARLINK-4642,PAYLOAD,2024-06-09 13:50:24,15.0882756,0.0001517,53.2171,238.4817,109.0232,251.0924,-0.00014674,-2.622e-05,0.0,0 STARLINK-4642,1 53720U 22107W   24161.57667612 -.00002622  00000-0 -14674-3 0  9992,2 53720  53.2171 238.4817 0001517 109.0232 251.0924 15.08827560 98082,6917.918,95.438,540.833,538.734,0.0
53720.0,STARLINK-4642,PAYLOAD,2024-06-09 21:47:20,15.08842202,0.0001329,53.2164,236.9947,102.0026,258.1116,0.00012554,1.711e-05,0.0,0 STARLINK-4642,1 53720U 22107W   24161.90787166  .00001711  00000-0  12554-3 0  9997,2 53720  53.2164 236.9947 0001329 102.0026 258.1116 15.08842202 98133,6917.874,95.437,540.658,538.819,0.0
53720.0,STARLINK-4642,PAYLOAD,2024-06-10 12:05:48,15.08838875,0.0001277,53.2154,234.3181,98.8258,261.2879,6.4144e-05,7.33e-06,0.0,0 STARLINK-4642,1 53720U 22107W   24162.50403389  .00000733  00000-0  64144-4 0  9992,2 53720  53.2154 234.3181 0001277  98.8258 261.2879 15.08838875 98227,6917.884,95.438,540.632,538.865,0.0
53720.0,STARLINK-4642,PAYLOAD,2024-06-10 21:38:06,15.08852328,0.0001299,53.2163,232.5324,92.8692,267.2448,0.00033555,5.058e-05,0.0,0 STARLINK-4642,1 53720U 22107W   24162.90146783  .00005058  00000-0  33555-3 0  9994,2 53720  53.2163 232.5324 0001299  92.8692 267.2448 15.08852328 98289,6917.843,95.437,540.606,538.809,0.0
53720.0,STARLINK-4642,PAYLOAD,2024-06-11 11:56:35,15.08841795,0.000115,53.2152,229.8542,82.8167,277.2956,0.0001605,2.268e-05,0.0,0 STARLINK-4642,1 53720U 22107W   24163.49763340  .00002268  00000-0  16050-3 0  9994,2 53720  53.2152 229.8542 0001150  82.8167 277.2956 15.08841795 98371,6917.875,95.437,540.535,538.944,0.0
53720.0,STARLINK-4642,PAYLOAD,2024-06-12 11:47:22,15.08837239,0.0001135,53.2151,225.3964,95.125,264.9872,2.3872e-06,-2.5e-06,0.0,0 STARLINK-4642,1 53720U 22107W   24164.49123708 -.00000250  00000-0  23872-5 0  9995,2 53720  53.2151 225.3964 0001135  95.1250 264.9872 15.08837239 98066,6917.889,95.438,540.539,538.969,0.0
53720.0,STARLINK-4642,PAYLOAD,2024-06-13 10:02:46,15.08837875,0.0001037,53.2149,221.2326,94.7258,265.3853,0.00033109,4.985e-05,0.0,0 STARLINK-4642,1 53720U 22107W   24165.41859905  .00004985  00000-0  33109-3 0  9993,2 53720  53.2149 221.2326 0001037  94.7258 265.3853 15.08837875 98660,6917.887,95.438,540.469,539.034,0.0
53720.0,STARLINK-4642,PAYLOAD,2024-06-14 13:04:20,15.08840134,0.0001425,53.2178,216.1752,103.7287,256.3864,0.00011198,1.495e-05,0.0,0 STARLINK-4642,1 53720U 22107W   24166.54467631  .00001495  00000-0  11198-3 0  9996,2 53720  53.2178 216.1752 0001425 103.7287 256.3864 15.08840134 98835,6917.88,95.438,540.731,538.759,0.0
53720.0,STARLINK-4642,PAYLOAD,2024-06-15 12:55:06,15.08845142,0.0001123,53.2161,211.7151,91.6865,268.4256,2.6498e-05,1.34e-06,0.0,0 STARLINK-4642,1 53720U 22107W   24167.53827332  .00000134  00000-0  26498-4 0  9993,2 53720  53.2161 211.7151 0001123  91.6865 268.4256 15.08845142 98982,6917.865,95.437,540.507,538.953,0.0
53720.0,STARLINK-4642,PAYLOAD,2024-06-16 09:35:07,15.08839497,0.0001086,53.2153,207.8496,83.63,276.4815,0.00010043,1.311e-05,0.0,0 STARLINK-4642,1 53720U 22107W   24168.39939458  .00001311  00000-0  10043-3 0  9997,2 53720  53.2153 207.8496 0001086  83.6300 276.4815 15.08839497 99116,6917.882,95.438,540.498,538.996,0.0
53720.0,STARLINK-4642,PAYLOAD,2024-06-16 19:07:26,15.08843114,0.0001091,53.2155,206.0654,82.7801,277.3315,0.00010774,1.427e-05,0.0,0 STARLINK-4642,1 53720U 22107W   24168.79683209  .00001427  00000-0  10774-3 0  9990,2 53720  53.2155 206.0654 0001091  82.7801 277.3315 15.08843114 99179,6917.871,95.437,540.491,538.981,0.0
53720.0,STARLINK-4642,PAYLOAD,2024-06-17 18:58:14,15.08839545,0.0001219,53.2171,201.6081,90.0182,270.095,-3.7436e-05,-8.84e-06,0.0,0 STARLINK-4642,1 53720U 22107W   24169.79044096 -.00000884  00000-0 -37436-4 0  9999,2 53720  53.2171 201.6081 0001219  90.0182 270.0950 15.08839545 99323,6917.882,95.438,540.59,538.903,0.0
53720.0,STARLINK-4642,PAYLOAD,2024-06-18 10:52:05,15.08840904,0.0001229,53.2168,198.634,90.5687,269.5446,6.1619e-05,6.93e-06,0.0,0 STARLINK-4642,1 53720U 22107W   24170.45283807  .00000693  00000-0  61619-4 0  9995,2 53720  53.2168 198.6340 0001229  90.5687 269.5446 15.08840904 98961,6917.878,95.437,540.593,538.892,0.0
53720.0,STARLINK-4642,PAYLOAD,2024-06-18 18:49:00,15.08845576,0.0001223,53.2169,197.1471,88.5554,271.5578,7.7324e-05,9.43e-06,0.0,0 STARLINK-4642,1 53720U 22107W   24170.78403422  .00000943  00000-0  77324-4 0  9996,2 53720  53.2169 197.1471 0001223  88.5554 271.5578 15.08845576 99471,6917.863,95.437,540.574,538.882,0.0
53720.0,STARLINK-4642,PAYLOAD,2024-06-19 10:42:53,15.08829052,0.0001293,53.216,194.1712,79.8413,280.2725,2.7315e-05,1.47e-06,0.0,0 STARLINK-4642,1 53720U 22107W   24171.44644866  .00000147  00000-0  27315-4 0  9990,2 53720  53.2160 194.1712 0001293  79.8413 280.2725 15.08829052 99114,6917.914,95.438,540.673,538.884,0.0
53720.0,STARLINK-4642,PAYLOAD,2024-06-20 01:01:21,15.08837394,0.0001261,53.2159,191.495,79.3424,280.771,2.7937e-05,1.57e-06,0.0,0 STARLINK-4642,1 53720U 22107W   24172.04260499  .00000157  00000-0  27937-4 0  9994,2 53720  53.2159 191.4950 0001261  79.3424 280.7710 15.08837394 99205,6917.888,95.438,540.626,538.881,0.0
53720.0,STARLINK-4642,PAYLOAD,2024-06-20 08:58:16,15.08841191,0.0001355,53.2159,190.0087,87.1662,272.9485,4.3177e-06,-2.19e-06,0.0,0 STARLINK-4642,1 53720U 22107W   24172.37380317 -.00000219  00000-0  43177-5 0  9997,2 53720  53.2159 190.0087 0001355  87.1662 272.9485 15.08841191 99714,6917.877,95.437,540.679,538.804,0.0
53720.0,STARLINK-4642,PAYLOAD,2024-06-20 18:30:34,15.08853637,0.0001139,53.2155,188.2252,74.4784,285.6333,-0.00011269,-2.082e-05,0.0,0 STARLINK-4642,1 53720U 22107W   24172.77123771 -.00002082  00000-0 -11269-3 0  9996,2 53720  53.2155 188.2252 0001139  74.4784 285.6333 15.08853637 99314,6917.839,95.437,540.492,538.916,0.0
53720.0,STARLINK-4642,PAYLOAD,2024-06-21 10:24:26,15.08843278,0.0001185,53.2157,185.2501,86.0364,274.0763,0.00011436,1.533e-05,0.0,0 STARLINK-4642,1 53720U 22107W   24173.43363767  .00001533  00000-0  11436-3 0  9995,2 53720  53.2157 185.2501 0001185  86.0364 274.0763 15.08843278 99414,6917.87,95.437,540.555,538.916,0.0
53720.0,STARLINK-4642,PAYLOAD,2024-06-22 03:53:41,15.08839967,0.000118,53.2155,181.9781,88.3985,271.7142,2.0408e-05,3.7e-07,0.0,0 STARLINK-4642,1 53720U 22107W   24174.16228238  .00000037  00000-0  20408-4 0  9997,2 53720  53.2155 181.9781 0001180  88.3985 271.7142 15.08839967 99521,6917.88,95.438,540.562,538.929,0.0
